{"fetched_at":"2026-03-30T06:02:59Z","count":15439,"tles":[{"name":"STARLINK-30256","line1":"1 57522U 23115B   26087.82280058  .00000081  00000+0  12459-4 0  9992","line2":"2 57522  43.0006 253.8568 0001232 274.5224  85.5487 15.27571391145274","category":"Starlink"}]}